0 SL-16 DEB
1 23418U 94077J   13283.41719140  .00000521  00000-0  33187-3 0  8575
2 23418 071.0086 068.9956 0081291 307.9598 051.4194 14.06671404975993
0 SL-16 DEB
1 23418U 94077J   13286.04828373  .00000578  00000-0  36538-3 0  8582
2 23418 071.0082 063.5461 0081632 303.9567 055.3811 14.06673984976368
0 SL-16 DEB
1 23418U 94077J   13289.74602976  .00000387  00000-0  25387-3 0  8590
2 23418 071.0092 055.8880 0081676 298.6581 060.6341 14.06680791976880
0 SL-16 DEB
1 23418U 94077J   13292.30599832  .00000236  00000-0  16562-3 0  8602
2 23418 071.0088 050.5868 0081777 294.8265 064.4364 14.06683974977246
0 SL-16 DEB
1 23418U 94077J   13294.72374128  .00000287  00000-0  19538-3 0  8612
2 23418 071.0093 045.5813 0081734 291.3334 067.9074 14.06685869977586
